start=new Date('2022-04-09T00:00:00.000Z').valueOf();
sats=[{"OBJECT_NAME":"STARLINK-2063","REF_FRAME":"TEME","EPHEMERIS_TYPE":"0","ELEMENT_SET_NO":"999","MEAN_ELEMENT_THEORY":"SGP4","PERIOD":"95.593","CENTER_NAME":"EARTH","ARG_OF_PERICENTER":"67.3144","COUNTRY_CODE":"US","FILE":"3393990","EPOCH":"2022-04-08T15:24:50.062176","ECCENTRICITY":"0.00014580","MEAN_ANOMALY":"292.7999","TLE_LINE1":"1 48553U 21041A   22098.64224609  .00000741  00000-0  68665-4 0  9994","CLASSIFICATION_TYPE":"U","TLE_LINE2":"2 48553  53.0559  75.8488 0001458  67.3144 292.7999 15.06390115 49514","REV_AT_EPOCH":"4951","LAUNCH_DATE":"2021-05-15","GP_ID":"200782024","DECAY_DATE":null,"SITE":"AFETR","APOAPSIS":"548.254","MEAN_MOTION_DDOT":"0.0000000000000","BSTAR":"0.00006866500000","RCS_SIZE":"LARGE","OBJECT_TYPE":"PAYLOAD","SEMIMAJOR_AXIS":"6925.379","PERIAPSIS":"546.234","OBJECT_ID":"2021-041A","MEAN_MOTION_DOT":"0.00000741","INCLINATION":"53.0559","NORAD_CAT_ID":"48553","TIME_SYSTEM":"UTC","RA_OF_ASC_NODE":"75.8488","MEAN_MOTION":"15.06390115"},{"SEMIMAJOR_AXIS":"6925.333","OBJECT_TYPE":"PAYLOAD","RCS_SIZE":"LARGE","BSTAR":"0.00028332000000","APOAPSIS":"548.093","MEAN_MOTION_DDOT":"0.0000000000000","SITE":"AFETR","RA_OF_ASC_NODE":"75.8114","MEAN_MOTION":"15.06405082","TIME_SYSTEM":"UTC","NORAD_CAT_ID":"48554","INCLINATION":"53.0544","MEAN_MOTION_DOT":"0.00003942","OBJECT_ID":"2021-041B","PERIAPSIS":"546.303","ECCENTRICITY":"0.00012920","EPOCH":"2022-04-08T15:35:26.742048","COUNTRY_CODE":"US","FILE":"3393990","CENTER_NAME":"EARTH","ARG_OF_PERICENTER":"83.7357","PERIOD":"95.592","MEAN_ELEMENT_THEORY":"SGP4","ELEMENT_SET_NO":"999","EPHEMERIS_TYPE":"0","REF_FRAME":"TEME","OBJECT_NAME":"STARLINK-2139","GP_ID":"200781775","DECAY_DATE":null,"LAUNCH_DATE":"2021-05-15","TLE_LINE2":"2 48554  53.0544  75.8114 0001292  83.7357 276.3780 15.06405082 49515","REV_AT_EPOCH":"4951","CLASSIFICATION_TYPE":"U","TLE_LINE1":"1 48554U 21041B   22098.64961507  .00003942  00000-0  28332-3 0  9992","MEAN_ANOMALY":"276.3780"},{"OBJECT_ID":"2021-041C","PERIAPSIS":"545.921","TIME_SYSTEM":"UTC","RA_OF_ASC_NODE":"86.5766","MEAN_MOTION":"15.06413971","MEAN_MOTION_DOT":"0.00007943","INCLINATION":"53.0532","NORAD_CAT_ID":"48555","MEAN_MOTION_DDOT":"0.0000000000000","APOAPSIS":"548.420","BSTAR":"0.00055136000000","SITE":"AFETR","RCS_SIZE":"LARGE","OBJECT_TYPE":"PAYLOAD","SEMIMAJOR_AXIS":"6925.306","TLE_LINE1":"1 48555U 21041C   22098.47913578  .00007943  00000-0  55136-3 0  9996","MEAN_ANOMALY":"305.6750","LAUNCH_DATE":"2021-05-15","DECAY_DATE":null,"GP_ID":"200746285","CLASSIFICATION_TYPE":"U","REV_AT_EPOCH":"4934","TLE_LINE2":"2 48555  53.0532  86.5766 0001804  54.4407 305.6750 15.06413971 49345","EPHEMERIS_TYPE":"0","ELEMENT_SET_NO":"999","OBJECT_NAME":"STARLINK-2145","REF_FRAME":"TEME","FILE":"3393517","COUNTRY_CODE":"US","EPOCH":"2022-04-08T11:29:57.331392","ECCENTRICITY":"0.00018040","MEAN_ELEMENT_THEORY":"SGP4","PERIOD":"95.591","ARG_OF_PERICENTER":"54.4407","CENTER_NAME":"EARTH"},{"COUNTRY_CODE":"US","FILE":"3393517","EPOCH":"2022-04-08T11:14:02.221728","ECCENTRICITY":"0.00018000","MEAN_ELEMENT_THEORY":"SGP4","PERIOD":"95.593","ARG_OF_PERICENTER":"55.4786","CENTER_NAME":"EARTH","EPHEMERIS_TYPE":"0","ELEMENT_SET_NO":"999","OBJECT_NAME":"STARLINK-2151","REF_FRAME":"TEME","LAUNCH_DATE":"2021-05-15","DECAY_DATE":null,"GP_ID":"200746535","CLASSIFICATION_TYPE":"U","REV_AT_EPOCH":"4934","TLE_LINE2":"2 48556  53.0543  86.6281 0001800  55.4786 304.6373 15.06393597 49349","TLE_LINE1":"1 48556U 21041D   22098.46808127  .00000292  00000-0  38511-4 0  9998","MEAN_ANOMALY":"304.6373","RCS_SIZE":"LARGE","OBJECT_TYPE":"PAYLOAD","SEMIMAJOR_AXIS":"6925.368","APOAPSIS":"548.480","MEAN_MOTION_DDOT":"0.0000000000000","BSTAR":"0.00003851100000","SITE":"AFETR","TIME_SYSTEM":"UTC","RA_OF_ASC_NODE":"86.6281","MEAN_MOTION":"15.06393597","MEAN_MOTION_DOT":"0.00000292","INCLINATION":"53.0543","NORAD_CAT_ID":"48556","OBJECT_ID":"2021-041D","PERIAPSIS":"545.987"},{"LAUNCH_DATE":"2021-05-15","DECAY_DATE":null,"GP_ID":"200781525","CLASSIFICATION_TYPE":"U","TLE_LINE2":"2 48557  53.0546  75.7190 0001557  67.0831 293.0322 15.06406253 49518","REV_AT_EPOCH":"4951","TLE_LINE1":"1 48557U 21041E   22098.67172587  .00006215  00000-0  43572-3 0  9999","MEAN_ANOMALY":"293.0322","COUNTRY_CODE":"US","FILE":"3393990","EPOCH":"2022-04-08T16:07:17.115168","ECCENTRICITY":"0.00015570","MEAN_ELEMENT_THEORY":"SGP4","PERIOD":"95.592","ARG_OF_PERICENTER":"67.0831","CENTER_NAME":"EARTH","EPHEMERIS_TYPE":"0","ELEMENT_SET_NO":"999","OBJECT_NAME":"STARLINK-2155","REF_FRAME":"TEME","TIME_SYSTEM":"UTC","MEAN_MOTION":"15.06406253","RA_OF_ASC_NODE":"75.7190","MEAN_MOTION_DOT":"0.00006215","INCLINATION":"53.0546","NORAD_CAT_ID":"48557","OBJECT_ID":"2021-041E","PERIAPSIS":"546.116","RCS_SIZE":"LARGE","OBJECT_TYPE":"PAYLOAD","SEMIMAJOR_AXIS":"6925.329","APOAPSIS":"548.273","MEAN_MOTION_DDOT":"0.0000000000000","BSTAR":"0.00043572000000","SITE":"AFETR"},{"GP_ID":"200782275","DECAY_DATE":null,"LAUNCH_DATE":"2021-05-15","TLE_LINE2":"2 48558  53.0544  75.7257 0001360  67.7880 292.3253 15.06414361 48652","REV_AT_EPOCH":"4865","CLASSIFICATION_TYPE":"U","TLE_LINE1":"1 48558U 21041F   22098.66803666  .00006076  00000-0  42631-3 0  9998","MEAN_ANOMALY":"292.3253","EPOCH":"2022-04-08T16:01:58.367424","ECCENTRICITY":"0.00013600","FILE":"3393990","COUNTRY_CODE":"US","ARG_OF_PERICENTER":"67.7880","CENTER_NAME":"EARTH","MEAN_ELEMENT_THEORY":"SGP4","PERIOD":"95.591","ELEMENT_SET_NO":"999","EPHEMERIS_TYPE":"0","REF_FRAME":"TEME","OBJECT_NAME":"STARLINK-2166","RA_OF_ASC_NODE":"75.7257","MEAN_MOTION":"15.06414361","TIME_SYSTEM":"UTC","NORAD_CAT_ID":"48558","MEAN_MOTION_DOT":"0.00006076","INCLINATION":"53.0544","OBJECT_ID":"2021-041F","PERIAPSIS":"546.228","OBJECT_TYPE":"PAYLOAD","SEMIMAJOR_AXIS":"6925.305","RCS_SIZE":"LARGE","BSTAR":"0.00042631000000","MEAN_MOTION_DDOT":"0.0000000000000","APOAPSIS":"548.111","SITE":"AFETR"},{"OBJECT_ID":"2021-041G","PERIAPSIS":"546.127","TIME_SYSTEM":"UTC","RA_OF_ASC_NODE":"75.8514","MEAN_MOTION":"15.06408137","MEAN_MOTION_DOT":"0.00004828","INCLINATION":"53.0542","NORAD_CAT_ID":"48559","APOAPSIS":"548.250","MEAN_MOTION_DDOT":"0.0000000000000","BSTAR":"0.00034275000000","SITE":"AFETR","RCS_SIZE":"LARGE","OBJECT_TYPE":"PAYLOAD","SEMIMAJOR_AXIS":"6925.324","TLE_LINE1":"1 48559U 21041G   22098.63760850  .00004828  00000-0  34275-3 0  9991","MEAN_ANOMALY":"304.0909","LAUNCH_DATE":"2021-05-15","GP_ID":"200781023","DECAY_DATE":null,"CLASSIFICATION_TYPE":"U","TLE_LINE2":"2 48559  53.0542  75.8514 0001533  56.0225 304.0909 15.06408137 49502","REV_AT_EPOCH":"4950","EPHEMERIS_TYPE":"0","ELEMENT_SET_NO":"999","OBJECT_NAME":"STARLINK-2167","REF_FRAME":"TEME","FILE":"3393990","COUNTRY_CODE":"US","EPOCH":"2022-04-08T15:18:09.374400","ECCENTRICITY":"0.00015330","MEAN_ELEMENT_THEORY":"SGP4","PERIOD":"95.592","CENTER_NAME":"EARTH","ARG_OF_PERICENTER":"56.0225"},{"SITE":"AFETR","MEAN_MOTION_DDOT":"0.0000000000000","APOAPSIS":"548.249","BSTAR":"-0.00018057000000","RCS_SIZE":"LARGE","SEMIMAJOR_AXIS":"6925.363","OBJECT_TYPE":"PAYLOAD","PERIAPSIS":"546.207","OBJECT_ID":"2021-041J","INCLINATION":"53.0539","MEAN_MOTION_DOT":"-0.00002970","NORAD_CAT_ID":"48561","TIME_SYSTEM":"UTC","RA_OF_ASC_NODE":"44.6113","MEAN_MOTION":"15.06395250","OBJECT_NAME":"STARLINK-2186","REF_FRAME":"TEME","EPHEMERIS_TYPE":"0","ELEMENT_SET_NO":"999","PERIOD":"95.592","MEAN_ELEMENT_THEORY":"SGP4","ARG_OF_PERICENTER":"86.1204","CENTER_NAME":"EARTH","FILE":"3393990","COUNTRY_CODE":"US","ECCENTRICITY":"0.00014740","EPOCH":"2022-04-08T22:00:00.999936","MEAN_ANOMALY":"53.2668","TLE_LINE1":"1 48561U 21041J   22098.91667824 -.00002970  00000-0 -18057-3 0  9990","CLASSIFICATION_TYPE":"U","TLE_LINE2":"2 48561  53.0539  44.6113 0001474  86.1204  53.2668 15.06395250  3668","REV_AT_EPOCH":"366","LAUNCH_DATE":"2021-05-15","DECAY_DATE":null,"GP_ID":"200780774"},{"PERIAPSIS":"546.274","OBJECT_ID":"2021-041K","MEAN_MOTION_DOT":"0.00001201","INCLINATION":"53.0541","NORAD_CAT_ID":"48562","TIME_SYSTEM":"UTC","MEAN_MOTION":"15.06406366","RA_OF_ASC_NODE":"75.8261","SITE":"AFETR","APOAPSIS":"548.114","MEAN_MOTION_DDOT":"0.0000000000000","BSTAR":"0.00009951200000","RCS_SIZE":"LARGE","OBJECT_TYPE":"PAYLOAD","SEMIMAJOR_AXIS":"6925.329","MEAN_ANOMALY":"290.9617","TLE_LINE1":"1 48562U 21041K   22098.64591945  .00001201  00000-0  99512-4 0  9991","CLASSIFICATION_TYPE":"U","TLE_LINE2":"2 48562  53.0541  75.8261 0001329  69.1514 290.9617 15.06406366 49515","REV_AT_EPOCH":"4951","LAUNCH_DATE":"2021-05-15","GP_ID":"200782025","DECAY_DATE":null,"OBJECT_NAME":"STARLINK-2187","REF_FRAME":"TEME","EPHEMERIS_TYPE":"0","ELEMENT_SET_NO":"999","MEAN_ELEMENT_THEORY":"SGP4","PERIOD":"95.592","ARG_OF_PERICENTER":"69.1514","CENTER_NAME":"EARTH","COUNTRY_CODE":"US","FILE":"3393990","EPOCH":"2022-04-08T15:30:07.440480","ECCENTRICITY":"0.00013290"},{"TLE_LINE1":"1 48563U 21041L   22098.66435160  .00002211  00000-0  16729-3 0  9990","MEAN_ANOMALY":"295.5809","DECAY_DATE":null,"GP_ID":"200781776","LAUNCH_DATE":"2021-05-15","TLE_LINE2":"2 48563  53.0548  75.7512 0001501  64.5335 295.5809 15.06405655 49517","REV_AT_EPOCH":"4951","CLASSIFICATION_TYPE":"U","ELEMENT_SET_NO":"999","EPHEMERIS_TYPE":"0","REF_FRAME":"TEME","OBJECT_NAME":"STARLINK-2188","EPOCH":"2022-04-08T15:56:39.978240","ECCENTRICITY":"0.00015010","FILE":"3393990","COUNTRY_CODE":"US","CENTER_NAME":"EARTH","ARG_OF_PERICENTER":"64.5335","MEAN_ELEMENT_THEORY":"SGP4","PERIOD":"95.592","OBJECT_ID":"2021-041L","PERIAPSIS":"546.157","RA_OF_ASC_NODE":"75.7512","MEAN_MOTION":"15.06405655","TIME_SYSTEM":"UTC","NORAD_CAT_ID":"48563","MEAN_MOTION_DOT":"0.00002211","INCLINATION":"53.0548","BSTAR":"0.00016729000000","APOAPSIS":"548.236","MEAN_MOTION_DDOT":"0.0000000000000","SITE":"AFETR","OBJECT_TYPE":"PAYLOAD","SEMIMAJOR_AXIS":"6925.331","RCS_SIZE":"LARGE"}];
